NORAD_CAT_ID,OBJECT_NAME,OBJECT_TYPE,EPOCH,MEAN_MOTION,ECCENTRICITY,INCLINATION,RA_OF_ASC_NODE,ARG_OF_PERICENTER,MEAN_ANOMALY,BSTAR,MEAN_MOTION_DOT,MEAN_MOTION_DDOT,TLE_LINE0,TLE_LINE1,TLE_LINE2,SEMIMAJOR_AXIS,PERIOD,APOGEE,PERIGEE,DECAYED
49457.0,STARLINK-3132,PAYLOAD,2023-09-08 00:13:23,15.08846551,0.0001821,53.2172,0.7999,82.1939,277.9259,0.00019457,2.81e-05,0.0,0 STARLINK-3132,1 49457U 21104BB  23251.00929464  .00002810  00000-0  19457-3 0  9994,2 49457  53.2172   0.7999 0001821  82.1939 277.9259 15.08846551101915,6917.86,95.437,540.985,538.466,0.0
49457.0,STARLINK-3132,PAYLOAD,2023-09-08 11:21:05,15.08835068,0.0001244,53.2166,358.7242,91.0219,269.0916,1.4345e-05,-6e-07,0.0,0 STARLINK-3132,1 49457U 21104BB  23251.47297868 -.00000060  00000-0  14345-4 0  9999,2 49457  53.2166 358.7242 0001244  91.0219 269.0916 15.08835068101984,6917.895,95.438,540.621,538.9,0.0
49457.0,STARLINK-3132,PAYLOAD,2023-09-08 12:56:28,15.08834856,0.0001295,53.2164,358.4263,91.494,268.62,9.3606e-06,-1.39e-06,0.0,0 STARLINK-3132,1 49457U 21104BB  23251.53921888 -.00000139  00000-0  93606-5 0  9997,2 49457  53.2164 358.4263 0001295  91.4940 268.6200 15.08834856100921,6917.896,95.438,540.657,538.865,0.0
49457.0,STARLINK-3132,PAYLOAD,2023-09-09 12:47:15,15.08839759,0.0001343,53.2175,353.9661,77.1076,283.0066,0.00016425,2.327e-05,0.0,0 STARLINK-3132,1 49457U 21104BB  23252.53282024  .00002327  00000-0  16425-3 0  9992,2 49457  53.2175 353.9661 0001343  77.1076 283.0066 15.08839759101075,6917.881,95.438,540.675,538.817,0.0
49457.0,STARLINK-3132,PAYLOAD,2023-09-09 15:58:01,15.08847353,0.0001361,53.2172,353.3704,88.7288,271.386,0.00026463,3.927e-05,0.0,0 STARLINK-3132,1 49457U 21104BB  23252.66529644  .00003927  00000-0  26463-3 0  9998,2 49457  53.2172 353.3704 0001361  88.7288 271.3860 15.08847353102169,6917.858,95.437,540.664,538.781,0.0
49457.0,STARLINK-3132,PAYLOAD,2023-09-10 01:30:20,15.08841435,0.0001549,53.2167,351.5851,88.1599,271.957,0.00016849,2.395e-05,0.0,0 STARLINK-3132,1 49457U 21104BB  23253.06273967  .00002395  00000-0  16849-3 0  9992,2 49457  53.2167 351.5851 0001549  88.1599 271.9570 15.08841435102229,6917.876,95.437,540.813,538.669,0.0
49457.0,STARLINK-3132,PAYLOAD,2023-09-10 11:02:39,15.08844177,0.0001354,53.2168,349.8019,86.6723,273.4424,0.00023765,3.497e-05,0.0,0 STARLINK-3132,1 49457U 21104BB  23253.46017888  .00003497  00000-0  23765-3 0  9993,2 49457  53.2168 349.8019 0001354  86.6723 273.4424 15.08844177101211,6917.868,95.437,540.669,538.796,0.0
49457.0,STARLINK-3132,PAYLOAD,2023-09-10 15:48:48,15.08851972,0.0001276,53.2171,348.9085,102.2474,257.8661,0.00033449,5.041e-05,0.0,0 STARLINK-3132,1 49457U 21104BB  23253.65889428  .00005041  00000-0  33449-3 0  9998,2 49457  53.2171 348.9085 0001276 102.2474 257.8661 15.08851972102311,6917.844,95.437,540.592,538.826,0.0
49457.0,STARLINK-3132,PAYLOAD,2023-09-11 12:28:49,15.08839559,0.0001377,53.2184,345.0398,110.948,249.1659,0.00010237,1.342e-05,0.0,0 STARLINK-3132,1 49457U 21104BB  23254.52002001  .00001342  00000-0  10237-3 0  9999,2 49457  53.2184 345.0398 0001377 110.9480 249.1659 15.08839559101378,6917.882,95.438,540.699,538.794,0.0
49457.0,STARLINK-3132,PAYLOAD,2023-09-11 15:39:35,15.08846294,0.0001381,53.2169,344.4488,80.8556,279.2592,0.00019145,2.761e-05,0.0,0 STARLINK-3132,1 49457U 21104BB  23254.65249914  .00002761  00000-0  19145-3 0  9992,2 49457  53.2169 344.4488 0001381  80.8556 279.2592 15.08846294102463,6917.861,95.437,540.682,538.771,0.0
49457.0,STARLINK-3132,PAYLOAD,2023-09-12 12:19:36,15.08852761,0.0001258,53.2175,340.5831,88.0918,272.0218,0.0002597,3.849e-05,0.0,0 STARLINK-3132,1 49457U 21104BB  23255.51361525  .00003849  00000-0  25970-3 0  9992,2 49457  53.2175 340.5831 0001258  88.0918 272.0218 15.08852761101522,6917.841,95.437,540.577,538.836,0.0
49457.0,STARLINK-3132,PAYLOAD,2023-09-12 15:30:22,15.08855363,0.0001387,53.2174,339.988,82.528,277.5869,0.00033333,5.023e-05,0.0,0 STARLINK-3132,1 49457U 21104BB  23255.64609358  .00005023  00000-0  33333-3 0  9993,2 49457  53.2174 339.9880 0001387  82.5280 277.5869 15.08855363101546,6917.833,95.437,540.658,538.739,0.0
49457.0,STARLINK-3132,PAYLOAD,2023-09-13 10:35:00,15.0885448,0.0001407,53.2172,336.4217,74.4308,285.684,0.00022563,3.306e-05,0.0,0 STARLINK-3132,1 49457U 21104BB  23256.44097257  .00003306  00000-0  22563-3 0  9996,2 49457  53.2172 336.4217 0001407  74.4308 285.6840 15.08854480102734,6917.836,95.437,540.674,538.728,0.0
49457.0,STARLINK-3132,PAYLOAD,2023-09-13 12:10:22,15.08857304,0.0001414,53.2173,336.1235,77.8876,282.2274,0.00027517,4.096e-05,0.0,0 STARLINK-3132,1 49457U 21104BB  23256.50721057  .00004096  00000-0  27517-3 0  9996,2 49457  53.2173 336.1235 0001414  77.8876 282.2274 15.08857304101671,6917.827,95.436,540.671,538.714,0.0
49457.0,STARLINK-3132,PAYLOAD,2023-09-14 00:53:29,15.08830696,0.0001421,53.2165,333.7443,94.7763,265.3391,-0.00017348,-3.047e-05,0.0,0 STARLINK-3132,1 49457U 21104BB  23257.03714137 -.00003047  00000-0 -17348-3 0  9994,2 49457  53.2165 333.7443 0001421  94.7763 265.3391 15.08830696102822,6917.909,95.438,540.757,538.791,0.0
49457.0,STARLINK-3132,PAYLOAD,2023-09-14 10:25:48,15.08817786,0.0001395,53.2171,331.96,104.385,255.7297,-0.00025365,-4.32e-05,0.0,0 STARLINK-3132,1 49457U 21104BB  23257.43459259 -.00004320  00000-0 -25365-3 0  9992,2 49457  53.2171 331.9600 0001395 104.3850 255.7297 15.08817786102888,6917.948,95.439,540.778,538.848,0.0
49457.0,STARLINK-3132,PAYLOAD,2023-09-14 12:01:11,15.08820281,0.000138,53.2172,331.6628,103.3112,256.8034,-0.00020307,-3.517e-05,0.0,0 STARLINK-3132,1 49457U 21104BB  23257.50083244 -.00003517  00000-0 -20307-3 0  9995,2 49457  53.2172 331.6628 0001380 103.3112 256.8034 15.08820281101828,6917.941,95.439,540.76,538.851,0.0
49457.0,STARLINK-3132,PAYLOAD,2023-09-15 10:16:36,15.08837709,0.0001372,53.2174,327.5013,103.0894,257.0252,0.00050536,7.763e-05,0.0,0 STARLINK-3132,1 49457U 21104BB  23258.42819629  .00007763  00000-0  50536-3 0  9993,2 49457  53.2174 327.5013 0001372 103.0894 257.0252 15.08837709103030,6917.887,95.438,540.702,538.803,0.0
49457.0,STARLINK-3132,PAYLOAD,2023-09-16 13:18:09,15.08858606,0.0001352,53.2169,322.4463,101.9858,258.1286,0.00054669,8.428e-05,0.0,0 STARLINK-3132,1 49457U 21104BB  23259.55427094  .00008428  00000-0  54669-3 0  9999,2 49457  53.2169 322.4463 0001352 101.9858 258.1286 15.08858606102130,6917.824,95.436,540.624,538.753,0.0
49457.0,STARLINK-3132,PAYLOAD,2023-09-16 22:50:27,15.08852696,0.0001385,53.2167,320.662,104.2195,255.8951,0.00020208,2.931e-05,0.0,0 STARLINK-3132,1 49457U 21104BB  23259.95170842  .00002931  00000-0  20208-3 0  9994,2 49457  53.2167 320.6620 0001385 104.2195 255.8951 15.08852696103260,6917.842,95.437,540.665,538.748,0.0
49457.0,STARLINK-3132,PAYLOAD,2023-09-17 13:08:55,15.08852852,0.0001309,53.2155,317.9836,90.3834,269.7308,0.00016386,2.322e-05,0.0,0 STARLINK-3132,1 49457U 21104BB  23260.54786655  .00002322  00000-0  16386-3 0  9992,2 49457  53.2155 317.9836 0001309  90.3834 269.7308 15.08852852102281,6917.841,95.437,540.612,538.801,0.0
49457.0,STARLINK-3132,PAYLOAD,2023-09-18 09:48:56,15.08845986,0.0001388,53.2159,314.1184,88.6083,271.5068,5.8139e-05,6.38e-06,0.0,0 STARLINK-3132,1 49457U 21104BB  23261.40898719  .00000638  00000-0  58139-4 0  9994,2 49457  53.2159 314.1184 0001388  88.6083 271.5068 15.08845986103480,6917.862,95.437,540.687,538.767,0.0
49457.0,STARLINK-3132,PAYLOAD,2023-09-18 11:24:19,15.08848216,0.0001357,53.2163,313.8216,88.0864,272.0284,6.4846e-05,7.44e-06,0.0,0 STARLINK-3132,1 49457U 21104BB  23261.47522563  .00000744  00000-0  64846-4 0  9992,2 49457  53.2163 313.8216 0001357  88.0864 272.0284 15.08848216102422,6917.855,95.437,540.659,538.782,0.0
49457.0,STARLINK-3132,PAYLOAD,2023-09-18 20:56:38,15.08850916,0.0001401,53.2164,312.0378,84.2218,275.8934,7.3308e-05,8.79e-06,0.0,0 STARLINK-3132,1 49457U 21104BB  23261.87266306  .00000879  00000-0  73308-4 0  9998,2 49457  53.2164 312.0378 0001401  84.2218 275.8934 15.08850916102483,6917.847,95.437,540.681,538.743,0.0
49457.0,STARLINK-3132,PAYLOAD,2023-09-20 03:08:58,15.08839255,0.0001593,53.2165,306.3891,76.9652,283.1518,3.6582e-05,2.94e-06,0.0,0 STARLINK-3132,1 49457U 21104BB  23263.13122807  .00000294  00000-0  36582-4 0  9990,2 49457  53.2165 306.3891 0001593  76.9652 283.1518 15.08839255103745,6917.883,95.438,540.85,538.646,0.0
49457.0,STARLINK-3132,PAYLOAD,2023-09-20 09:30:31,15.08831125,0.0001505,53.2164,305.1986,74.3229,285.7929,-6.8101e-05,-1.371e-05,0.0,0 STARLINK-3132,1 49457U 21104BB  23263.39619314 -.00001371  00000-0 -68101-4 0  9993,2 49457  53.2164 305.1986 0001505  74.3229 285.7929 15.08831125103787,6917.908,95.438,540.814,538.731,0.0
49457.0,STARLINK-3132,PAYLOAD,2023-09-21 07:45:54,15.08838559,0.000148,53.2172,301.0363,74.674,285.4415,6.1138e-05,6.85e-06,0.0,0 STARLINK-3132,1 49457U 21104BB  23264.32355252  .00000685  00000-0  61138-4 0  9993,2 49457  53.2172 301.0363 0001480  74.6740 285.4415 15.08838559103924,6917.885,95.438,540.774,538.726,0.0
49457.0,STARLINK-3132,PAYLOAD,2023-09-22 09:12:05,15.08841167,0.0001581,53.2172,296.2769,75.7461,284.3706,0.00024903,3.678e-05,0.0,0 STARLINK-3132,1 49457U 21104BB  23265.38339153  .00003678  00000-0  24903-3 0  9995,2 49457  53.2172 296.2769 0001581  75.7461 284.3706 15.08841167104081,6917.877,95.437,540.836,538.648,0.0
49457.0,STARLINK-3132,PAYLOAD,2023-09-22 18:44:24,15.08838809,0.0001638,53.2171,294.4923,80.9679,279.1499,0.0001678,2.383e-05,0.0,0 STARLINK-3132,1 49457U 21104BB  23265.78083584  .00002383  00000-0  16780-3 0  9999,2 49457  53.2171 294.4923 0001638  80.9679 279.1499 15.08838809103072,6917.884,95.438,540.882,538.616,0.0
49457.0,STARLINK-3132,PAYLOAD,2023-09-22 23:30:33,15.08839946,0.0001709,53.2162,293.6005,92.7365,267.3823,3.3673e-05,2.48e-06,0.0,0 STARLINK-3132,1 49457U 21104BB  23265.97955405  .00000248  00000-0  33673-4 0  9999,2 49457  53.2162 293.6005 0001709  92.7365 267.3823 15.08839946104171,6917.881,95.438,540.928,538.563,0.0
